SL-16 R/B               
1 26070U 00006B   21264.35324896 -.00000182  00000-0 -68762-4 0  9992
2 26070  71.0010 284.7192 0015154 150.5226 209.6755 14.15471859117835
MTI                     
1 26102U 00014A   21264.51447282  .00016145  00000-0  17517-3 0  9995
2 26102  97.4573 176.2834 0004687 340.5840  19.5260 15.63591835196340
TITAN 4B R/B            
1 26474U 00047B   21264.68556444  .00000222  00000-0  29960-4 0  9997
2 26474  67.9922 245.8760 0052271  46.6822 313.8660 14.96221782148234
ENVISAT                 
1 27386U 02009A   21264.76742602  .00000025  00000-0  21895-4 0  9992
2 27386  98.1567 253.9387 0001232  85.4800  88.0348 14.38042702 24844
IDEFIX & ARIANE 42P R/B 
1 27422U 02021B   21264.57244110  .00000008  00000-0  19858-4 0  9994
2 27422  98.4109 214.1915 0011419 314.3568  45.6678 14.29331213 11040
AQUA                    
1 27424U 02022A   21264.94079094  .00000122  00000-0  37166-4 0  9994
2 27424  98.2145 204.9045 0001637  45.7462  43.4486 14.57105269 31080
CZ-4B R/B               
1 27432U 02024C   21264.82716645 -.00000022  00000-0  12973-4 0  9991
2 27432  99.0842 280.8329 0049709 315.7526 218.9523 14.14114132998853
MIDORI II (ADEOS-II)    
1 27597U 02056A   21264.61113573  .00000026  00000-0  28185-4 0  9991
2 27597  98.5708 208.0299 0002150  81.2448 278.8976 14.27516430977603
H-2A R/B                
1 27601U 02056E   21264.85236655  .00000094  00000-0  48882-4 0  9991
2 27601  98.1872 281.7146 0071732 343.4904 189.2924 14.32018427980722
CZ-4B R/B               
1 28059U 03049C   21264.54874065  .00000037  00000-0  20564-4 0  9995
2 28059  98.4944 192.5214 0050211 167.7247 192.5185 14.52668681949775
CZ-2C R/B               
1 28222U 04012C   21264.67524170  .00000618  00000-0  40302-4 0  9998
2 28222  97.7381 236.5043 0044902 251.8430 281.6949 15.11057963955622
SL-16 R/B               
1 28353U 04021B   21264.65241909  .00000091  00000-0  72748-4 0  9991
2 28353  71.0000  52.0482 0005853 333.0946  26.9872 14.14251526892342
CZ-4B R/B               
1 28415U 04035C   21264.83378281 -.00000049  00000-0  11572-5 0  9992
2 28415  97.5563 305.7028 0050195 216.6898 143.0889 15.07215785933124
CZ-2C R/B               
1 28480U 04046B   21264.79758799  .00000018  00000-0  22598-4 0  9991
2 28480  98.0522 269.0349 0140723 298.6069 235.7871 14.25764045876158
ARIANE 5 R/B            
1 28499U 04049H   21264.56248042  .00000122  00000-0  22447-4 0  9993
2 28499  98.0773  14.3449 0091085 222.5374 147.7920 14.80154200904302
CZ-2D R/B               
1 28738U 05024B   21264.30695429  .00000770  00000-0  47682-4 0  9997
2 28738  97.3602 276.9450 0012745  37.1100 323.1010 15.12549776891051
SUZAKU (ASTRO-EII)      
1 28773U 05025A   21264.66625543  .00001471  00000-0  64924-4 0  9993
2 28773  31.3806 255.3580 0004550 175.2277 184.8414 15.18686029894101
ALOS (DAICHI)           
1 28931U 06002A   21264.18063909  .00000180  00000-0  43932-4 0  9996
2 28931  97.8965 234.7785 0002253  71.0193 289.1231 14.62882754835052
H-2A R/B                
1 28932U 06002B   21264.81005832  .00000101  00000-0  15739-4 0  9995
2 28932  98.3247 287.3156 0086735 251.8838 282.6629 14.92676741849952
AKARI (ASTRO-F)         
1 28939U 06005A   21264.82930084  .00004989  00000-0  12041-3 0  9992
2 28939  98.2368 299.8761 0086113 145.4542 215.2339 15.37950643851715
RESURS-DK 1             
1 29228U 06021A   21264.80101978  .00000174  00000-0  20307-4 0  9999
2 29228  69.9340  93.3581 0002155 149.2887 210.8401 15.02750310842012
GENESIS 1               
1 29252U 06029A   21264.62529115  .00001015  00000-0  56924-4 0  9990
2 29252  64.5206 232.4244 0052895 301.9302  57.6683 15.18865853838120
CZ-4B R/B               
1 29507U 06046C   21264.81748000  .00000740  00000-0  61177-4 0  9999
2 29507  97.7656 290.5750 0049552  51.4136 309.1510 15.01132886814566
CZ-2C R/B               
1 31114U 07010B   21264.76610704  .00000081  00000-0  56326-4 0  9999
2 31114  98.2322  91.7080 0059808   3.0094 357.1432 14.19375208748441
COSMO-SKYMED 1          
1 31598U 07023A   21264.91241765 -.00000141  00000-0 -11144-4 0  9991
2 31598  97.8917  87.4498 0001328  93.8381 266.2989 14.82149077773186
GENESIS 2               
1 31789U 07028A   21264.31904308  .00000584  00000-0  38653-4 0  9994
2 31789  64.4925 276.0136 0014490  11.4725 348.6725 15.17914489785030
COSMOS 2428             
1 31792U 07029A   21264.58821182  .00000295  00000-0  18624-3 0  9990
2 31792  70.9154  24.0247 0005698 100.6678 259.5085 14.12357155733972
SL-16 R/B               
1 31793U 07029B   21264.50338605  .00000105  00000-0  79777-4 0  9993
2 31793  70.9793 357.8527 0002659 277.6152  93.1510 14.14452983734924
KORONAS-FOTON           
1 33504U 09003A   21264.85191357  .00000232  00000-0  10283-4 0  9996
2 33504  82.4399 123.5769 0020212 119.7712 240.5534 15.16114142697258
H-2A R/B                
1 38341U 12025E   21264.79582882  .00000215  00000-0  32656-4 0  9997
2 38341  98.5273  96.8850 0055043 188.9244 171.0996 14.84274887505796
CUSAT 2 & FALCON 9 R/B  
1 39271U 13055G   21264.88364377  .00006069  00000-0  14101-3 0  9998
2 39271  80.9627 128.4757 0562563 216.5116 139.6477 14.54245388417642
CZ-2C R/B               
1 39364U 13059B   21264.39861828  .00001817  00000-0  66644-4 0  9990
2 39364  97.2031 321.8901 0045345 209.6916 150.1749 15.28292019439087
SL-4 R/B                
1 39679U 14021B   21264.87418091  .00000977  00000-0  64195-4 0  9997
2 39679  51.6146 124.9967 0170157 105.5611 256.4214 15.07155504408590
ALOS-2                  
1 39766U 14029A   21264.90245260 -.00000196  00000-0 -19379-4 0  9991
2 39766  97.9222   0.8841 0001457  87.0213 273.1180 14.79469584395920
CZ-2C R/B               
1 40306U 14071B   21264.63830212  .00006447  00000-0  11830-3 0  9993
2 40306  97.3804 224.2865 0011351 284.1925  75.8065 15.49569725385142
SL-27 R/B               
1 40354U 14084B   21264.94157910  .00001697  00000-0  40997-4 0  9990
2 40354  74.7375 152.5778 0035186 109.6847 250.8168 15.41384792379209
YAOGAN 29               
1 41038U 15069A   21264.85166569  .00000057  00000-0  14389-4 0  9999
2 41038  98.0437 259.0801 0001285 120.3306 239.8034 14.80524888314549
ASTRO-H (HITOMI)        
1 41337U 16012A   21264.86187262  .00000386  00000-0  24275-4 0  9994
2 41337  31.0060 323.7906 0012350 311.2806  48.6765 14.98895674306783
HXMT (HUIYAN)           
1 42758U 17034A   21264.81568297  .00000495  00000-0  44079-4 0  9998
2 42758  43.0186  24.1486 0008051  32.6256 101.9417 15.09313723235572
CZ-2C R/B               
1 43521U 18054D   21264.57933785  .00000616  00000-0  34711-4 0  9998
2 43521  35.1530 216.7727 0082209 227.2573 132.1200 15.11675031178954
AEOLUS                  
1 43600U 18066A   21264.78767641  .00036725  00000-0  14461-3 0  9997
2 43600  96.7144 270.1154 0004066  88.2386 271.9353 15.86789405178523
SAOCOM 1A               
1 43641U 18076A   21264.85330478  .00000048  00000-0  12603-4 0  9991
2 43641  97.8885  90.4006 0001384  83.0190 277.1182 14.82156595159943
SAOCOM 1B               
1 46265U 20059A   21264.88440658  .00000030  00000-0  10351-4 0  9994
2 46265  97.8894  89.4952 0001388  81.4835 278.6539 14.82159043 57342
2020-063G               
1 46395U 20063G   21264.88606534  .00049571  12104-4  13539-3 0  9995
2 46395  50.2008 170.7083 0007208 174.2665 185.8406 15.94561285 60631
SL-4 R/B                
1 47547U 21008B   21264.86021175  .00089413  67312-5  29040-3 0  9990
2 47547  67.1352 105.4349 0349743 235.1230 121.6589 15.34692928 35093
TIANHE                  
1 48274U 21035A   21264.74384352  .00003362  00000-0  41845-4 0  9997
2 48274  41.4702  53.9908 0003511 297.0688  62.9793 15.61624604 22790
